[
    {
        "Altitude(m)": 559659.23054903,
        "Argument of Periapsis(deg)": 0.026491964442854003,
        "Eccentricity": 0.0,
        "Inclination(deg)": 53.0,
        "Latitude(deg)": 52.09669316817479,
        "Longitude(deg)": 66.08976639430405,
        "Mean Anomaly(deg)": 80.36647147031036,
        "RAAN(deg)": 94.96057347411208,
        "Satellite Name": "Starlink Shell 1 420",
        "Satellite Number": 420,
        "Semi-Major Axis(m)": 6931778.249405717,
        "Time(s)": 760
    },
    {
        "Altitude(m)": 559689.2954245465,
        "Argument of Periapsis(deg)": 0.02684054292236524,
        "Eccentricity": 0.0,
        "Inclination(deg)": 53.0,
        "Latitude(deg)": 52.228228730082435,
        "Longitude(deg)": 67.04488719694801,
        "Mean Anomaly(deg)": 80.99330267386706,
        "RAAN(deg)": 94.9600547040346,
        "Satellite Name": "Starlink Shell 1 420",
        "Satellite Number": 420,
        "Semi-Major Axis(m)": 6931778.249405717,
        "Time(s)": 770
    },
    {
        "Altitude(m)": 559717.4175213774,
        "Argument of Periapsis(deg)": 0.027189121401876473,
        "Eccentricity": 0.0,
        "Inclination(deg)": 53.0,
        "Latitude(deg)": 52.35130566895138,
        "Longitude(deg)": 68.0057192543787,
        "Mean Anomaly(deg)": 81.62013387742377,
        "RAAN(deg)": 94.95953593395713,
        "Satellite Name": "Starlink Shell 1 420",
        "Satellite Number": 420,
        "Semi-Major Axis(m)": 6931778.249405717,
        "Time(s)": 780
    },
    {
        "Altitude(m)": 559743.5799487497,
        "Argument of Periapsis(deg)": 0.02753769988138771,
        "Eccentricity": 0.0,
        "Inclination(deg)": 53.0,
        "Latitude(deg)": 52.46583987503577,
        "Longitude(deg)": 68.97193505482468,
        "Mean Anomaly(deg)": 82.24696508098049,
        "RAAN(deg)": 94.95901716387965,
        "Satellite Name": "Starlink Shell 1 420",
        "Satellite Number": 420,
        "Semi-Major Axis(m)": 6931778.249405717,
        "Time(s)": 790
    },
    {
        "Altitude(m)": 559767.7670034955,
        "Argument of Periapsis(deg)": 0.02788627836089895,
        "Eccentricity": 0.0,
        "Inclination(deg)": 53.0,
        "Latitude(deg)": 52.57175209068586,
        "Longitude(deg)": 69.9431923196773,
        "Mean Anomaly(deg)": 82.8737962845372,
        "RAAN(deg)": 94.95849839380217,
        "Satellite Name": "Starlink Shell 1 420",
        "Satellite Number": 420,
        "Semi-Major Axis(m)": 6931778.249405717,
        "Time(s)": 800
    },
    {
        "Altitude(m)": 559789.9641777249,
        "Argument of Periapsis(deg)": 0.02823485684041019,
        "Eccentricity": 0.0,
        "Inclination(deg)": 53.0,
        "Latitude(deg)": 52.66896816586124,
        "Longitude(deg)": 70.91913516400916,
        "Mean Anomaly(deg)": 83.50062748809394,
        "RAAN(deg)": 94.9579796237247,
        "Satellite Name": "Starlink Shell 1 420",
        "Satellite Number": 420,
        "Semi-Major Axis(m)": 6931778.249405717,
        "Time(s)": 810
    },
    {
        "Altitude(m)": 559810.1581658997,
        "Argument of Periapsis(deg)": 0.028583435319921423,
        "Eccentricity": 0.0,
        "Inclination(deg)": 53.0,
        "Latitude(deg)": 52.75741930204756,
        "Longitude(deg)": 71.8993953418845,
        "Mean Anomaly(deg)": 84.12745869165063,
        "RAAN(deg)": 94.95746085364725,
        "Satellite Name": "Starlink Shell 1 420",
        "Satellite Number": 420,
        "Semi-Major Axis(m)": 6931778.249405717,
        "Time(s)": 820
    },
    {
        "Altitude(m)": 559828.3368713196,
        "Argument of Periapsis(deg)": 0.028932013799432665,
        "Eccentricity": 0.0,
        "Inclination(deg)": 53.0,
        "Latitude(deg)": 52.83704228286676,
        "Longitude(deg)": 72.88359206176186,
        "Mean Anomaly(deg)": 84.75428989520734,
        "RAAN(deg)": 94.95694208356977,
        "Satellite Name": "Starlink Shell 1 420",
        "Satellite Number": 420,
        "Semi-Major Axis(m)": 6931778.249405717,
        "Time(s)": 830
    },
    {
        "Altitude(m)": 559844.4894120111,
        "Argument of Periapsis(deg)": 0.029280592278943897,
        "Eccentricity": 0.0,
        "Inclination(deg)": 53.0,
        "Latitude(deg)": 52.907779689632086,
        "Longitude(deg)": 73.87133339423157,
        "Mean Anomaly(deg)": 85.38112109876407,
        "RAAN(deg)": 94.9564233134923,
        "Satellite Name": "Starlink Shell 1 420",
        "Satellite Number": 420,
        "Semi-Major Axis(m)": 6931778.249405717,
        "Time(s)": 840
    },
    {
        "Altitude(m)": 559858.6061260178,
        "Argument of Periapsis(deg)": 0.029629170758455132,
        "Eccentricity": 0.0,
        "Inclination(deg)": 53.0,
        "Latitude(deg)": 52.96958010018057,
        "Longitude(deg)": 74.86221775487323,
        "Mean Anomaly(deg)": 86.00795230232077,
        "RAAN(deg)": 94.95590454341482,
        "Satellite Name": "Starlink Shell 1 420",
        "Satellite Number": 420,
        "Semi-Major Axis(m)": 6931778.249405717,
        "Time(s)": 850
    },
    {
        "Altitude(m)": 559870.6785761366,
        "Argument of Periapsis(deg)": 0.02997774923796637,
        "Eccentricity": 0.0,
        "Inclination(deg)": 53.0,
        "Latitude(deg)": 53.02239826941097,
        "Longitude(deg)": 75.85583377600828,
        "Mean Anomaly(deg)": 86.63478350587752,
        "RAAN(deg)": 94.95538577333734,
        "Satellite Name": "Starlink Shell 1 420",
        "Satellite Number": 420,
        "Semi-Major Axis(m)": 6931778.249405717,
        "Time(s)": 860
    },
    {
        "Altitude(m)": 559880.6995539833,
        "Argument of Periapsis(deg)": 0.030326327717477602,
        "Eccentricity": 0.0,
        "Inclination(deg)": 53.0,
        "Latitude(deg)": 53.06619529007405,
        "Longitude(deg)": 76.8517627636527,
        "Mean Anomaly(deg)": 87.26161470943421,
        "RAAN(deg)": 94.95486700325986,
        "Satellite Name": "Starlink Shell 1 420",
        "Satellite Number": 420,
        "Semi-Major Axis(m)": 6931778.249405717,
        "Time(s)": 870
    },
    {
        "Altitude(m)": 559888.6630835329,
        "Argument of Periapsis(deg)": 0.030674906196988847,
        "Eccentricity": 0.0,
        "Inclination(deg)": 53.0,
        "Latitude(deg)": 53.10093873249391,
        "Longitude(deg)": 77.84957868980892,
        "Mean Anomaly(deg)": 87.88844591299093,
        "RAAN(deg)": 94.95434823318242,
        "Satellite Name": "Starlink Shell 1 420",
        "Satellite Number": 420,
        "Semi-Major Axis(m)": 6931778.249405717,
        "Time(s)": 880
    },
    {
        "Altitude(m)": 559894.5644240008,
        "Argument of Periapsis(deg)": 0.031023484676500086,
        "Eccentricity": 0.0,
        "Inclination(deg)": 53.0,
        "Latitude(deg)": 53.1266027620591,
        "Longitude(deg)": 78.84884991484455,
        "Mean Anomaly(deg)": 88.51527711654764,
        "RAAN(deg)": 94.95382946310494,
        "Satellite Name": "Starlink Shell 1 420",
        "Satellite Number": 420,
        "Semi-Major Axis(m)": 6931778.249405717,
        "Time(s)": 890
    },
    {
        "Altitude(m)": 559898.4000721764,
        "Argument of Periapsis(deg)": 0.03137206315601132,
        "Eccentricity": 0.0,
        "Inclination(deg)": 53.0,
        "Latitude(deg)": 53.14316823349283,
        "Longitude(deg)": 79.84914095064876,
        "Mean Anomaly(deg)": 89.14210832010436,
        "RAAN(deg)": 94.95331069302746,
        "Satellite Name": "Starlink Shell 1 420",
        "Satellite Number": 420,
        "Semi-Major Axis(m)": 6931778.249405717,
        "Time(s)": 900
    },
    {
        "Altitude(m)": 559900.1677640962,
        "Argument of Periapsis(deg)": 0.03172064163552255,
        "Eccentricity": 0.0,
        "Inclination(deg)": 53.0,
        "Latitude(deg)": 53.15062276109823,
        "Longitude(deg)": 80.8500127428021,
        "Mean Anomaly(deg)": 89.76893952366107,
        "RAAN(deg)": 94.95279192294998,
        "Satellite Name": "Starlink Shell 1 420",
        "Satellite Number": 420,
        "Semi-Major Axis(m)": 6931778.249405717,
        "Time(s)": 910
    },
    {
        "Altitude(m)": 559899.8664761621,
        "Argument of Periapsis(deg)": 0.0320692201150338,
        "Eccentricity": 0.0,
        "Inclination(deg)": 53.0,
        "Latitude(deg)": 53.148960764378316,
        "Longitude(deg)": 81.85102448819408,
        "Mean Anomaly(deg)": 90.39577072721778,
        "RAAN(deg)": 94.95227315287251,
        "Satellite Name": "Starlink Shell 1 420",
        "Satellite Number": 420,
        "Semi-Major Axis(m)": 6931778.249405717,
        "Time(s)": 920
    },
    {
        "Altitude(m)": 559897.4964256263,
        "Argument of Periapsis(deg)": 0.032417798594545036,
        "Eccentricity": 0.0,
        "Inclination(deg)": 53.0,
        "Latitude(deg)": 53.13818348863574,
        "Longitude(deg)": 82.85173546558012,
        "Mean Anomaly(deg)": 91.02260193077448,
        "RAAN(deg)": 94.95175438279503,
        "Satellite Name": "Starlink Shell 1 420",
        "Satellite Number": 420,
        "Semi-Major Axis(m)": 6931778.249405717,
        "Time(s)": 930
    },
    {
        "Altitude(m)": 559893.0590704888,
        "Argument of Periapsis(deg)": 0.03276637707405627,
        "Eccentricity": 0.0,
        "Inclination(deg)": 53.0,
        "Latitude(deg)": 53.11829900037379,
        "Longitude(deg)": 83.85170535639338,
        "Mean Anomaly(deg)": 91.64943313433122,
        "RAAN(deg)": 94.95123561271758,
        "Satellite Name": "Starlink Shell 1 420",
        "Satellite Number": 420,
        "Semi-Major Axis(m)": 6931778.249405717,
        "Time(s)": 940
    }
]